#aV2019  5  4  0  0  0.00000000     288 DD+AD WGS84 FIT  NGA
## 2051 518400.00000000   300.00000000 58607 0.0000000000000
+   31     1  2  3  5  6  7  8  9 10 11 12 13 14 15 16 17 18
+         19 20 21 22 23 24 25 26 27 28 29 30 31 32  0  0  0
+          0  0  0  0  0  0  0  0  0  0  0  0  0  0  0  0  0
+          0  0  0  0  0  0  0  0  0  0  0  0  0  0  0  0  0
+          0  0  0  0  0  0  0  0  0  0  0  0  0  0  0  0  0
++         2  2  2  2  2  2  2  2  2  2  2  2  2  2  2  2  2
++         2  2  2  2  2  2  2  2  2  2  2  2  2  2  0  0  0
++         0  0  0  0  0  0  0  0  0  0  0  0  0  0  0  0  0
++         0  0  0  0  0  0  0  0  0  0  0  0  0  0  0  0  0
++         0  0  0  0  0  0  0  0  0  0  0  0  0  0  0  0  0
%c cc cc ccc ccc cccc cccc cccc cccc ccccc ccccc ccccc ccccc
%c cc cc ccc ccc cccc cccc cccc cccc ccccc ccccc ccccc ccccc
%f  0.0000000  0.000000000  0.00000000000  0.000000000000000
%f  0.0000000  0.000000000  0.00000000000  0.000000000000000
%i    0    0    0    0      0      0      0      0         0
%i    0    0    0    0      0      0      0      0         0
/*      NGA, ST. LOUIS,MO.                                  
/*   EPHEMERIS COMPUTED FROM 2 DAYS OF DATA                 
/*   EPOCHA v3 SMOOTHER                                     
/*   G1762 IERS2010 SATAF SATAPC                            
*  2019  5  4  8 10  0.00000000
P  1 -13346.755223  10866.020484  19954.508381     -8.386989                    
V  1  -1564.069404 -25772.013958  13185.896526     -0.086366                    
P  2  13778.067425  13390.000327 -17802.524708   -204.767093                    
V  2    252.276208  23859.299171  17398.884364     -0.092545                    
P  3 -23408.074808  12216.949204   2383.135023    188.249281                    
V  3   1168.047218  -4017.086690  31651.969436     -0.002322                    
P  5  19562.455957   2741.459002 -17968.425043      1.011007                    
V  5 -18087.422500  13548.553048 -17537.487288     -0.000855                    
P  6   7158.962558  23617.470486  -9724.212605    214.538012                    
V  6  -1862.959229  12454.155136  28776.090045     -0.098123                    
P  7  -7574.482918  22604.320158 -10938.897421    -17.425508                    
V  7  -3083.148032 -14430.231971 -27526.096461     -0.074846                    
P  8 -23693.827279  -3508.608949  11735.295088   -142.292285                    
V  8 -12103.451106  -8666.396690 -26906.637618     -0.014047                    
P  9  -6602.527098  13934.857016 -21666.207977    417.613864                    
V  9 -24273.837110 -12804.145734   -851.112599     -0.068368                    
P 10    960.447956 -17131.899925  20284.074591     55.935616                    
V 10  22492.900411 -12410.493818 -11775.059035     -0.103748                    
P 11 -14789.785995   6283.664609  20612.530017   -613.820760                    
V 11 -12113.123595 -24835.981950  -1339.010617      0.077311                    
P 12  24191.376135 -10220.012590   3055.662675    245.573599                    
V 12  -2650.591358   3924.366255  32039.052489     -0.034060                    
P 13  22998.847623  12262.617899   5120.655551    -65.142829                    
V 13   3916.880316   5900.633463 -31006.164439      0.016277                    
P 14 -16512.189737 -18795.344315   9508.492763    -81.917965                    
V 14  10942.892761   4407.086259  28497.517726      0.015629                    
P 15  23719.574958    441.214410  12065.358355   -314.928180                    
V 15  13191.533121   8936.483041 -25313.105215      0.020883                    
P 16 -19933.201955  -3280.566498 -17656.308078    -37.446456                    
V 16  19144.479057 -10537.503589 -19442.556212     -0.028716                    
P 17   9227.385903  18840.812294  16748.376024     49.230277                    
V 17 -17967.237182  -9762.757847  21318.901818      0.059745                    
P 18 -15123.163686    646.916775  21339.768805     50.084798                    
V 18  -1995.935457 -28214.162066   -414.569481      0.034308                    
P 19  15953.328005  18736.718016   9581.590452   -323.127106                    
V 19 -11552.177721  -5441.445698  29050.815496      0.045300                    
P 20   9447.418523 -20484.731516  13800.308826    524.465745                    
V 20  15893.139291  -8635.560794 -23670.426949      0.002856                    
P 21   2038.309855 -25756.331781  -5674.479313   -199.623862                    
V 21   3756.248060   7937.231366 -30270.704666      0.075219                    
P 22 -23516.003552   7500.431509   9948.531748   -695.010277                    
V 22   8121.258787  -9967.895439  27434.785030     -0.065440                    
P 23 -18361.086435   5315.781484 -18271.614672   -187.641420                    
V 23 -20320.009686 -12490.536010  16085.186725      0.015521                    
P 24  14668.852319  -7248.542132  20713.127696    -65.614619                    
V 24   2931.701541  26656.219100   7522.828498     -0.005632                    
P 25  18143.863682 -17474.736674  -8209.588242   -752.666713                    
V 25  10025.711475  -3111.887189  29790.512273     -0.040256                    
P 26 -11558.605407 -10722.722184 -21411.416377    192.549597                    
V 26  22663.723261 -14962.924982  -4570.739528      0.097499                    
P 27 -23789.512551 -12115.720800   1158.322749   -123.486328                    
V 27   -431.662517  -2507.324201 -31903.047016     -0.091338                    
P 28  -3184.057281  17005.370487  20787.359609    767.762550                    
V 28 -22702.116960  10377.061405 -12239.464154      0.001700                    
P 29  11660.788200  -9714.731244 -21830.111634    210.040672                    
V 29  23062.663814  15105.875708   5601.477156     -0.092659                    
P 30   -642.810038  26447.652601    -87.382828    -98.224705                    
V 30  -3596.489425   -213.975780 -31442.021814     -0.070008                    
P 31  -7618.974743 -22635.253131 -11132.364080     40.593831                    
V 31   2867.424118 -14275.154172  27497.165226     -0.026423                    
P 32 -12377.037775 -18451.227085  14696.042095   -103.216937                    
V 32  17287.323574   6977.337319  23293.964672      0.171812                    
EOF
